APRIZESAT 7             
1 39416U 13066A   17345.86782065  .00000059  00000-0  13229-4 0  9996
2 39416  97.6105  28.0041 0042016  30.8295 329.5374 14.83760269219548
